NORAD_CAT_ID,OBJECT_NAME,OBJECT_TYPE,EPOCH,MEAN_MOTION,ECCENTRICITY,INCLINATION,RA_OF_ASC_NODE,ARG_OF_PERICENTER,MEAN_ANOMALY,BSTAR,MEAN_MOTION_DOT,MEAN_MOTION_DDOT,TLE_LINE0,TLE_LINE1,TLE_LINE2,SEMIMAJOR_AXIS,PERIOD,APOGEE,PERIGEE,DECAYED
52569.0,STARLINK-3927,PAYLOAD,2023-03-28 20:02:34,15.08855735,9.39e-05,53.2141,273.3093,124.6932,235.4149,8.067e-05,9.97e-06,0.0,0 STARLINK-3927,1 52569U 22051AN  23087.83511981  .00000997  00000-0  80670-4 0  9993,2 52569  53.2141 273.3093 0000939 124.6932 235.4149 15.08855735 49019,6917.832,95.437,540.347,539.048,0.0
52569.0,STARLINK-3927,PAYLOAD,2023-03-29 05:34:53,15.08847962,8.65e-05,53.2139,271.5254,110.0391,250.0694,4.3924e-05,4.12e-06,0.0,0 STARLINK-3927,1 52569U 22051AN  23088.23256217  .00000412  00000-0  43924-4 0  9999,2 52569  53.2139 271.5254 0000865 110.0391 250.0694 15.08847962 49146,6917.856,95.437,540.319,539.123,0.0
52569.0,STARLINK-3927,PAYLOAD,2023-03-29 11:56:26,15.08848147,0.0001081,53.2139,270.3394,89.2601,270.8515,0.00018662,2.684e-05,0.0,0 STARLINK-3927,1 52569U 22051AN  23088.49752601  .00002684  00000-0  18662-3 0  9998,2 52569  53.2139 270.3394 0001081  89.2601 270.8515 15.08848147 49115,6917.855,95.437,540.468,538.973,0.0
52569.0,STARLINK-3927,PAYLOAD,2023-03-29 18:17:58,15.08846616,7.77e-05,53.2126,269.1468,101.9007,258.2072,0.00017759,2.54e-05,0.0,0 STARLINK-3927,1 52569U 22051AN  23088.76248295  .00002540  00000-0  17759-3 0  9994,2 52569  53.2126 269.1468 0000777 101.9007 258.2072 15.08846616 49153,6917.86,95.437,540.263,539.188,0.0
52569.0,STARLINK-3927,PAYLOAD,2023-03-30 05:25:40,15.08842962,7.23e-05,53.2147,267.0665,87.426,272.6815,0.00010978,1.46e-05,0.0,0 STARLINK-3927,1 52569U 22051AN  23089.22616280  .00001460  00000-0  10978-3 0  9995,2 52569  53.2147 267.0665 0000723  87.4260 272.6815 15.08842962 49292,6917.871,95.437,540.236,539.236,0.0
52569.0,STARLINK-3927,PAYLOAD,2023-03-30 18:08:45,15.08848166,8.45e-05,53.2142,264.687,78.3337,281.775,0.00024088,3.549e-05,0.0,0 STARLINK-3927,1 52569U 22051AN  23089.75608237  .00003549  00000-0  24088-3 0  9993,2 52569  53.2142 264.6870 0000845  78.3337 281.7750 15.08848166 49300,6917.855,95.437,540.305,539.136,0.0
52569.0,STARLINK-3927,PAYLOAD,2023-03-30 22:54:54,15.08858388,8.4e-05,53.2139,263.7936,84.1864,275.9224,0.00043584,6.659e-05,0.0,0 STARLINK-3927,1 52569U 22051AN  23089.95479798  .00006659  00000-0  43584-3 0  9990,2 52569  53.2139 263.7936 0000840  84.1864 275.9224 15.08858388 49403,6917.824,95.436,540.27,539.108,0.0
52569.0,STARLINK-3927,PAYLOAD,2023-03-31 11:38:00,15.08843656,8.21e-05,53.2139,261.4147,94.5955,265.5131,0.00020615,2.995e-05,0.0,0 STARLINK-3927,1 52569U 22051AN  23090.48472345  .00002995  00000-0  20615-3 0  9990,2 52569  53.2139 261.4147 0000821  94.5955 265.5131 15.08843656 49489,6917.869,95.437,540.302,539.166,0.0
52569.0,STARLINK-3927,PAYLOAD,2023-04-01 11:28:47,15.08830871,7.84e-05,53.2135,256.9524,70.0337,290.0739,0.00053657,8.26e-05,0.0,0 STARLINK-3927,1 52569U 22051AN  23091.47833128  .00008260  00000-0  53657-3 0  9993,2 52569  53.2135 256.9524 0000784  70.0337 290.0739 15.08830871 49565,6917.908,95.438,540.316,539.231,0.0
52569.0,STARLINK-3927,PAYLOAD,2023-04-01 14:39:34,15.08826714,5.64e-05,53.2146,256.3582,54.6685,305.436,0.00021724,3.17e-05,0.0,0 STARLINK-3927,1 52569U 22051AN  23091.61081341  .00003170  00000-0  21724-3 0  9996,2 52569  53.2146 256.3582 0000564  54.6685 305.4360 15.08826714 49657,6917.921,95.438,540.176,539.396,0.0
52569.0,STARLINK-3927,PAYLOAD,2023-04-01 17:50:20,15.088234,6.65e-05,53.2155,255.7648,54.8896,305.2159,0.00011132,1.484e-05,0.0,0 STARLINK-3927,1 52569U 22051AN  23091.74329553  .00001484  00000-0  11132-3 0  9998,2 52569  53.2155 255.7648 0000665  54.8896 305.2159 15.08823400 49609,6917.931,95.439,540.256,539.336,0.0
52569.0,STARLINK-3927,PAYLOAD,2023-04-02 14:30:21,15.08863468,9.69e-05,53.2142,251.8986,59.8627,300.2461,0.0014485,0.00022855,0.0,0 STARLINK-3927,1 52569U 22051AN  23092.60441279  .00022855  00000-0  14485-2 0  9992,2 52569  53.2142 251.8986 0000969  59.8627 300.2461 15.08863468 49802,6917.809,95.436,540.344,539.003,0.0
52569.0,STARLINK-3927,PAYLOAD,2023-04-02 20:51:53,15.08879696,9.88e-05,53.2138,250.709,52.3842,307.724,0.0013485,0.00021262,0.0,0 STARLINK-3927,1 52569U 22051AN  23092.86936547  .00021262  00000-0  13485-2 0  9997,2 52569  53.2138 250.7090 0000988  52.3842 307.7240 15.08879696 49772,6917.759,95.435,540.308,538.941,0.0
52569.0,STARLINK-3927,PAYLOAD,2023-04-03 03:13:26,15.08843406,0.0002543,53.2143,249.5195,85.4359,274.6923,0.00021287,3.101e-05,0.0,0 STARLINK-3927,1 52569U 22051AN  23093.13433547  .00003101  00000-0  21287-3 0  9992,2 52569  53.2143 249.5195 0002543  85.4359 274.6923 15.08843406 49881,6917.87,95.437,541.494,537.976,0.0
52569.0,STARLINK-3927,PAYLOAD,2023-04-03 11:10:21,15.08839483,0.0001245,53.2156,248.0339,94.0368,266.0766,0.00058627,9.055e-05,0.0,0 STARLINK-3927,1 52569U 22051AN  23093.46553201  .00009055  00000-0  58627-3 0  9990,2 52569  53.2156 248.0339 0001245  94.0368 266.0766 15.08839483 49861,6917.882,95.438,540.608,538.886,0.0
52569.0,STARLINK-3927,PAYLOAD,2023-04-04 11:01:09,15.08842506,0.000115,53.216,243.573,85.3351,274.7773,0.00063109,9.771e-05,0.0,0 STARLINK-3927,1 52569U 22051AN  23094.45913618  .00009771  00000-0  63109-3 0  9998,2 52569  53.2160 243.5730 0001150  85.3351 274.7773 15.08842506 50081,6917.873,95.437,540.533,538.942,0.0
52569.0,STARLINK-3927,PAYLOAD,2023-04-05 14:02:42,15.08842697,0.0001042,53.2171,238.5185,83.8829,276.2282,0.00023328,3.427e-05,0.0,0 STARLINK-3927,1 52569U 22051AN  23095.58521642  .00003427  00000-0  23328-3 0  9996,2 52569  53.2171 238.5185 0001042  83.8829 276.2282 15.08842697 50188,6917.872,95.437,540.458,539.016,0.0
52569.0,STARLINK-3927,PAYLOAD,2023-04-05 15:38:05,15.08845319,9.64e-05,53.214,238.2187,78.5983,281.5117,0.00028602,4.268e-05,0.0,0 STARLINK-3927,1 52569U 22051AN  23095.65145544  .00004268  00000-0  28602-3 0  9991,2 52569  53.2140 238.2187 0000964  78.5983 281.5117 15.08845319 50266,6917.864,95.437,540.396,539.062,0.0
52569.0,STARLINK-3927,PAYLOAD,2023-04-05 17:13:28,15.08848067,0.0001137,53.2164,237.9231,68.4475,291.6639,0.00034598,5.224e-05,0.0,0 STARLINK-3927,1 52569U 22051AN  23095.71769514  .00005224  00000-0  34598-3 0  9991,2 52569  53.2164 237.9231 0001137  68.4475 291.6639 15.08848067 50203,6917.856,95.437,540.507,538.934,0.0
52569.0,STARLINK-3927,PAYLOAD,2023-04-06 09:07:20,15.08846282,0.000143,53.2158,234.9518,72.7561,287.3588,0.00018353,2.635e-05,0.0,0 STARLINK-3927,1 52569U 22051AN  23096.38009556  .00002635  00000-0  18353-3 0  9992,2 52569  53.2158 234.9518 0001430  72.7561 287.3588 15.08846282 50304,6917.861,95.437,540.715,538.737,0.0
52569.0,STARLINK-3927,PAYLOAD,2023-04-07 12:08:53,15.08851879,0.000109,53.216,229.8949,85.5748,274.5368,-8.5081e-05,-1.642e-05,0.0,0 STARLINK-3927,1 52569U 22051AN  23097.50616934 -.00001642  00000-0 -85081-4 0  9993,2 52569  53.2160 229.8949 0001090  85.5748 274.5368 15.08851879 50547,6917.844,95.437,540.463,538.955,0.0
52569.0,STARLINK-3927,PAYLOAD,2023-04-08 11:59:40,15.08839464,0.000166,53.2124,225.4288,114.9794,245.137,4.4495e-05,4.2e-06,0.0,0 STARLINK-3927,1 52569U 22051AN  23098.49977370  .00000420  00000-0  44495-4 0  9991,2 52569  53.2124 225.4288 0001660 114.9794 245.1370 15.08839464 50695,6917.882,95.438,540.895,538.599,0.0
52569.0,STARLINK-3927,PAYLOAD,2023-04-09 08:39:41,15.08835071,0.0001391,53.2159,221.5677,104.4529,255.6617,1.1914e-05,-9.8e-07,0.0,0 STARLINK-3927,1 52569U 22051AN  23099.36089777 -.00000098  00000-0  11914-4 0  9995,2 52569  53.2159 221.5677 0001391 104.4529 255.6617 15.08835071 50750,6917.895,95.438,540.723,538.798,0.0
52569.0,STARLINK-3927,PAYLOAD,2023-04-09 18:11:59,15.08845386,0.0001251,53.2157,219.782,105.5548,254.5583,9.0203e-05,1.148e-05,0.0,0 STARLINK-3927,1 52569U 22051AN  23099.75833215  .00001148  00000-0  90203-4 0  9996,2 52569  53.2157 219.7820 0001251 105.5548 254.5583 15.08845386 50889,6917.864,95.437,540.594,538.864,0.0
52569.0,STARLINK-3927,PAYLOAD,2023-04-10 08:30:28,15.08836356,0.000116,53.2151,217.1059,96.6527,263.4597,8.6365e-05,1.087e-05,0.0,0 STARLINK-3927,1 52569U 22051AN  23100.35450092  .00001087  00000-0  86365-4 0  9999,2 52569  53.2151 217.1059 0001160  96.6527 263.4597 15.08836356 50976,6917.892,95.438,540.559,538.954,0.0
52569.0,STARLINK-3927,PAYLOAD,2023-04-11 06:45:52,15.08846506,0.0001855,53.214,212.944,89.1005,271.02,6.1515e-05,6.91e-06,0.0,0 STARLINK-3927,1 52569U 22051AN  23101.28185281  .00000691  00000-0  61515-4 0  9997,2 52569  53.2140 212.9440 0001855  89.1005 271.0200 15.08846506 51111,6917.861,95.437,541.009,538.442,0.0
52569.0,STARLINK-3927,PAYLOAD,2023-04-11 11:32:01,15.08841184,0.0001526,53.2153,212.0511,95.9422,264.1744,-2.1023e-05,-6.23e-06,0.0,0 STARLINK-3927,1 52569U 22051AN  23101.48057369 -.00000623  00000-0 -21023-4 0  9991,2 52569  53.2153 212.0511 0001526  95.9422 264.1744 15.08841184 51076,6917.877,95.437,540.797,538.686,0.0
52569.0,STARLINK-3927,PAYLOAD,2023-04-11 16:18:11,15.08841176,0.0001551,53.2157,211.16,89.0369,271.0801,3.1799e-05,2.18e-06,0.0,0 STARLINK-3927,1 52569U 22051AN  23101.67929435  .00000218  00000-0  31799-4 0  9993,2 52569  53.2157 211.1600 0001551  89.0369 271.0801 15.08841176 51107,6917.877,95.437,540.815,538.669,0.0
52569.0,STARLINK-3927,PAYLOAD,2023-04-12 11:22:48,15.08839889,0.0001236,53.2155,207.5922,95.2153,264.898,3.6802e-06,-2.29e-06,0.0,0 STARLINK-3927,1 52569U 22051AN  23102.47417471 -.00000229  00000-0  36802-5 0  9998,2 52569  53.2155 207.5922 0001236  95.2153 264.8980 15.08839889 51220,6917.881,95.438,540.601,538.891,0.0
52569.0,STARLINK-3927,PAYLOAD,2023-04-13 06:27:26,15.08837987,0.0001767,53.2169,204.0243,77.2939,282.825,0.00010944,1.454e-05,0.0,0 STARLINK-3927,1 52569U 22051AN  23103.26905894  .00001454  00000-0  10944-3 0  9994,2 52569  53.2169 204.0243 0001767  77.2939 282.8250 15.08837987 51344,6917.887,95.438,540.974,538.529,0.0
